ORBCOMM FM24            
1 25478U 98053D   25110.50573087  .00001568  00000+0  56091-3 0  9998
2 25478  45.0061 182.5592 0003831 269.1711  90.8698 14.37936826389423
ORBCOMM FM25            
1 25479U 98053E   25109.50337932  .00001537  00000+0  55110-3 0  9991
2 25479  45.0052 185.5737 0005559 286.9769  73.0470 14.37907537389290
ORBCOMM FM26            
1 25480U 98053F   25109.54645329  .00001379  00000+0  50839-3 0  9996
2 25480  45.0058 181.4114 0006631 309.7525  50.2739 14.36991504389211
ORBCOMM FM27            
1 25481U 98053G   25110.46486362  .00001741  00000+0  61762-3 0  9990
2 25481  45.0037 181.2396 0002594 255.0316 105.0245 14.37936033389403
ORBCOMM FM28            
1 25482U 98053H   25110.16316226  .00001590  00000+0  56575-3 0  9997
2 25482  45.0040 120.2573 0005211 338.6292  21.4338 14.38138987390171
ORBCOMM FM30            
1 25980U 99065A   25110.02975296  .00001808  00000+0  64959-3 0  9994
2 25980  45.0325   4.9679 0006598  69.3552 290.8003 14.37156950326619
ORBCOMM FM31            
1 25981U 99065B   25109.86168112  .00001702  00000+0  61485-3 0  9990
2 25981  45.0238 359.2691 0003740  88.6495 271.4782 14.37106006325614
ORBCOMM FM32            
1 25982U 99065C   25109.86920660  .00001583  00000+0  58643-3 0  9994
2 25982  45.0167  15.4162 0005710  86.6790 273.4711 14.36138909326212
