<?xml version="1.0" encoding="UTF-8"?>
<ndm xmlns:xsi="http://www.w3.org/2001/XMLSchema-instance" xsi:noNamespaceSchemaLocation="https://sanaregistry.org/r/ndmxml_unqualified/ndmxml-2.0.0-master-2.0.xsd">
<omm id="CCSDS_OMM_VERS" version="2.0">
<header><CREATION_DATE/><ORIGINATOR/></header><body><segment><metadata><OBJECT_NAME>ORBCOMM FM24</OBJECT_NAME><OBJECT_ID>1998-053D</OBJECT_ID><CENTER_NAME>EARTH</CENTER_NAME><REF_FRAME>TEME</REF_FRAME><TIME_SYSTEM>UTC</TIME_SYSTEM><MEAN_ELEMENT_THEORY>SGP4</MEAN_ELEMENT_THEORY></metadata><data><meanElements><EPOCH>2025-04-20T12:08:15.147168</EPOCH><MEAN_MOTION>14.37936826</MEAN_MOTION><ECCENTRICITY>.0003831</ECCENTRICITY><INCLINATION>45.0061</INCLINATION><RA_OF_ASC_NODE>182.5592</RA_OF_ASC_NODE><ARG_OF_PERICENTER>269.1711</ARG_OF_PERICENTER><MEAN_ANOMALY>90.8698</MEAN_ANOMALY></meanElements><tleParameters><EPHEMERIS_TYPE>0</EPHEMERIS_TYPE><CLASSIFICATION_TYPE>U</CLASSIFICATION_TYPE><NORAD_CAT_ID>25478</NORAD_CAT_ID><ELEMENT_SET_NO>999</ELEMENT_SET_NO><REV_AT_EPOCH>38942</REV_AT_EPOCH><BSTAR>.56091E-3</BSTAR><MEAN_MOTION_DOT>.1568E-4</MEAN_MOTION_DOT><MEAN_MOTION_DDOT>0</MEAN_MOTION_DDOT></tleParameters></data></segment></body></omm>
<omm id="CCSDS_OMM_VERS" version="2.0">
<header><CREATION_DATE/><ORIGINATOR/></header><body><segment><metadata><OBJECT_NAME>ORBCOMM FM25</OBJECT_NAME><OBJECT_ID>1998-053E</OBJECT_ID><CENTER_NAME>EARTH</CENTER_NAME><REF_FRAME>TEME</REF_FRAME><TIME_SYSTEM>UTC</TIME_SYSTEM><MEAN_ELEMENT_THEORY>SGP4</MEAN_ELEMENT_THEORY></metadata><data><meanElements><EPOCH>2025-04-19T12:04:51.973248</EPOCH><MEAN_MOTION>14.37907537</MEAN_MOTION><ECCENTRICITY>.0005559</ECCENTRICITY><INCLINATION>45.0052</INCLINATION><RA_OF_ASC_NODE>185.5737</RA_OF_ASC_NODE><ARG_OF_PERICENTER>286.9769</ARG_OF_PERICENTER><MEAN_ANOMALY>73.0470</MEAN_ANOMALY></meanElements><tleParameters><EPHEMERIS_TYPE>0</EPHEMERIS_TYPE><CLASSIFICATION_TYPE>U</CLASSIFICATION_TYPE><NORAD_CAT_ID>25479</NORAD_CAT_ID><ELEMENT_SET_NO>999</ELEMENT_SET_NO><REV_AT_EPOCH>38929</REV_AT_EPOCH><BSTAR>.5511E-3</BSTAR><MEAN_MOTION_DOT>.1537E-4</MEAN_MOTION_DOT><MEAN_MOTION_DDOT>0</MEAN_MOTION_DDOT></tleParameters></data></segment></body></omm>
<omm id="CCSDS_OMM_VERS" version="2.0">
<header><CREATION_DATE/><ORIGINATOR/></header><body><segment><metadata><OBJECT_NAME>ORBCOMM FM26</OBJECT_NAME><OBJECT_ID>1998-053F</OBJECT_ID><CENTER_NAME>EARTH</CENTER_NAME><REF_FRAME>TEME</REF_FRAME><TIME_SYSTEM>UTC</TIME_SYSTEM><MEAN_ELEMENT_THEORY>SGP4</MEAN_ELEMENT_THEORY></metadata><data><meanElements><EPOCH>2025-04-19T13:06:53.564256</EPOCH><MEAN_MOTION>14.36991504</MEAN_MOTION><ECCENTRICITY>.0006631</ECCENTRICITY><INCLINATION>45.0058</INCLINATION><RA_OF_ASC_NODE>181.4114</RA_OF_ASC_NODE><ARG_OF_PERICENTER>309.7525</ARG_OF_PERICENTER><MEAN_ANOMALY>50.2739</MEAN_ANOMALY></meanElements><tleParameters><EPHEMERIS_TYPE>0</EPHEMERIS_TYPE><CLASSIFICATION_TYPE>U</CLASSIFICATION_TYPE><NORAD_CAT_ID>25480</NORAD_CAT_ID><ELEMENT_SET_NO>999</ELEMENT_SET_NO><REV_AT_EPOCH>38921</REV_AT_EPOCH><BSTAR>.50839E-3</BSTAR><MEAN_MOTION_DOT>.1379E-4</MEAN_MOTION_DOT><MEAN_MOTION_DDOT>0</MEAN_MOTION_DDOT></tleParameters></data></segment></body></omm>
<omm id="CCSDS_OMM_VERS" version="2.0">
<header><CREATION_DATE/><ORIGINATOR/></header><body><segment><metadata><OBJECT_NAME>ORBCOMM FM27</OBJECT_NAME><OBJECT_ID>1998-053G</OBJECT_ID><CENTER_NAME>EARTH</CENTER_NAME><REF_FRAME>TEME</REF_FRAME><TIME_SYSTEM>UTC</TIME_SYSTEM><MEAN_ELEMENT_THEORY>SGP4</MEAN_ELEMENT_THEORY></metadata><data><meanElements><EPOCH>2025-04-20T11:09:24.216768</EPOCH><MEAN_MOTION>14.37936033</MEAN_MOTION><ECCENTRICITY>.0002594</ECCENTRICITY><INCLINATION>45.0037</INCLINATION><RA_OF_ASC_NODE>181.2396</RA_OF_ASC_NODE><ARG_OF_PERICENTER>255.0316</ARG_OF_PERICENTER><MEAN_ANOMALY>105.0245</MEAN_ANOMALY></meanElements><tleParameters><EPHEMERIS_TYPE>0</EPHEMERIS_TYPE><CLASSIFICATION_TYPE>U</CLASSIFICATION_TYPE><NORAD_CAT_ID>25481</NORAD_CAT_ID><ELEMENT_SET_NO>999</ELEMENT_SET_NO><REV_AT_EPOCH>38940</REV_AT_EPOCH><BSTAR>.61762E-3</BSTAR><MEAN_MOTION_DOT>.1741E-4</MEAN_MOTION_DOT><MEAN_MOTION_DDOT>0</MEAN_MOTION_DDOT></tleParameters></data></segment></body></omm>
<omm id="CCSDS_OMM_VERS" version="2.0">
<header><CREATION_DATE/><ORIGINATOR/></header><body><segment><metadata><OBJECT_NAME>ORBCOMM FM28</OBJECT_NAME><OBJECT_ID>1998-053H</OBJECT_ID><CENTER_NAME>EARTH</CENTER_NAME><REF_FRAME>TEME</REF_FRAME><TIME_SYSTEM>UTC</TIME_SYSTEM><MEAN_ELEMENT_THEORY>SGP4</MEAN_ELEMENT_THEORY></metadata><data><meanElements><EPOCH>2025-04-20T03:54:57.219264</EPOCH><MEAN_MOTION>14.38138987</MEAN_MOTION><ECCENTRICITY>.0005211</ECCENTRICITY><INCLINATION>45.0040</INCLINATION><RA_OF_ASC_NODE>120.2573</RA_OF_ASC_NODE><ARG_OF_PERICENTER>338.6292</ARG_OF_PERICENTER><MEAN_ANOMALY>21.4338</MEAN_ANOMALY></meanElements><tleParameters><EPHEMERIS_TYPE>0</EPHEMERIS_TYPE><CLASSIFICATION_TYPE>U</CLASSIFICATION_TYPE><NORAD_CAT_ID>25482</NORAD_CAT_ID><ELEMENT_SET_NO>999</ELEMENT_SET_NO><REV_AT_EPOCH>39017</REV_AT_EPOCH><BSTAR>.56575E-3</BSTAR><MEAN_MOTION_DOT>.159E-4</MEAN_MOTION_DOT><MEAN_MOTION_DDOT>0</MEAN_MOTION_DDOT></tleParameters></data></segment></body></omm>
<omm id="CCSDS_OMM_VERS" version="2.0">
<header><CREATION_DATE/><ORIGINATOR/></header><body><segment><metadata><OBJECT_NAME>ORBCOMM FM30</OBJECT_NAME><OBJECT_ID>1999-065A</OBJECT_ID><CENTER_NAME>EARTH</CENTER_NAME><REF_FRAME>TEME</REF_FRAME><TIME_SYSTEM>UTC</TIME_SYSTEM><MEAN_ELEMENT_THEORY>SGP4</MEAN_ELEMENT_THEORY></metadata><data><meanElements><EPOCH>2025-04-20T00:42:50.655744</EPOCH><MEAN_MOTION>14.37156950</MEAN_MOTION><ECCENTRICITY>.0006598</ECCENTRICITY><INCLINATION>45.0325</INCLINATION><RA_OF_ASC_NODE>4.9679</RA_OF_ASC_NODE><ARG_OF_PERICENTER>69.3552</ARG_OF_PERICENTER><MEAN_ANOMALY>290.8003</MEAN_ANOMALY></meanElements><tleParameters><EPHEMERIS_TYPE>0</EPHEMERIS_TYPE><CLASSIFICATION_TYPE>U</CLASSIFICATION_TYPE><NORAD_CAT_ID>25980</NORAD_CAT_ID><ELEMENT_SET_NO>999</ELEMENT_SET_NO><REV_AT_EPOCH>32661</REV_AT_EPOCH><BSTAR>.64959E-3</BSTAR><MEAN_MOTION_DOT>.1808E-4</MEAN_MOTION_DOT><MEAN_MOTION_DDOT>0</MEAN_MOTION_DDOT></tleParameters></data></segment></body></omm>
<omm id="CCSDS_OMM_VERS" version="2.0">
<header><CREATION_DATE/><ORIGINATOR/></header><body><segment><metadata><OBJECT_NAME>ORBCOMM FM31</OBJECT_NAME><OBJECT_ID>1999-065B</OBJECT_ID><CENTER_NAME>EARTH</CENTER_NAME><REF_FRAME>TEME</REF_FRAME><TIME_SYSTEM>UTC</TIME_SYSTEM><MEAN_ELEMENT_THEORY>SGP4</MEAN_ELEMENT_THEORY></metadata><data><meanElements><EPOCH>2025-04-19T20:40:49.248768</EPOCH><MEAN_MOTION>14.37106006</MEAN_MOTION><ECCENTRICITY>.000374</ECCENTRICITY><INCLINATION>45.0238</INCLINATION><RA_OF_ASC_NODE>359.2691</RA_OF_ASC_NODE><ARG_OF_PERICENTER>88.6495</ARG_OF_PERICENTER><MEAN_ANOMALY>271.4782</MEAN_ANOMALY></meanElements><tleParameters><EPHEMERIS_TYPE>0</EPHEMERIS_TYPE><CLASSIFICATION_TYPE>U</CLASSIFICATION_TYPE><NORAD_CAT_ID>25981</NORAD_CAT_ID><ELEMENT_SET_NO>999</ELEMENT_SET_NO><REV_AT_EPOCH>32561</REV_AT_EPOCH><BSTAR>.61485E-3</BSTAR><MEAN_MOTION_DOT>.1702E-4</MEAN_MOTION_DOT><MEAN_MOTION_DDOT>0</MEAN_MOTION_DDOT></tleParameters></data></segment></body></omm>
<omm id="CCSDS_OMM_VERS" version="2.0">
<header><CREATION_DATE/><ORIGINATOR/></header><body><segment><metadata><OBJECT_NAME>ORBCOMM FM32</OBJECT_NAME><OBJECT_ID>1999-065C</OBJECT_ID><CENTER_NAME>EARTH</CENTER_NAME><REF_FRAME>TEME</REF_FRAME><TIME_SYSTEM>UTC</TIME_SYSTEM><MEAN_ELEMENT_THEORY>SGP4</MEAN_ELEMENT_THEORY></metadata><data><meanElements><EPOCH>2025-04-19T20:51:39.450240</EPOCH><MEAN_MOTION>14.36138909</MEAN_MOTION><ECCENTRICITY>.000571</ECCENTRICITY><INCLINATION>45.0167</INCLINATION><RA_OF_ASC_NODE>15.4162</RA_OF_ASC_NODE><ARG_OF_PERICENTER>86.6790</ARG_OF_PERICENTER><MEAN_ANOMALY>273.4711</MEAN_ANOMALY></meanElements><tleParameters><EPHEMERIS_TYPE>0</EPHEMERIS_TYPE><CLASSIFICATION_TYPE>U</CLASSIFICATION_TYPE><NORAD_CAT_ID>25982</NORAD_CAT_ID><ELEMENT_SET_NO>999</ELEMENT_SET_NO><REV_AT_EPOCH>32621</REV_AT_EPOCH><BSTAR>.58643E-3</BSTAR><MEAN_MOTION_DOT>.1583E-4</MEAN_MOTION_DOT><MEAN_MOTION_DDOT>0</MEAN_MOTION_DDOT></tleParameters></data></segment></body></omm>

</ndm>
